{
  "type": "FeatureCollection",
  "features": [
    {
      "type": "Feature",
      "properties": {
        "norad_id": 35176,
        "name": "FENGYUN 1C DEB",
        "group": "fengyun-1c-debris",
        "lat": 22.860120528293272,
        "lon": 153.36724110771402,
        "alt_km": 834.2916616906768,
        "timestamp": "2025-12-08T19:31:49.095736+00:00",
        "meta_object_name": "FENGYUN 1C DEB",
        "meta_object_id": "1999-025DNG",
        "meta_epoch": "2025-12-07T05:30:55.334304",
        "meta_mean_motion": 14.16982341,
        "meta_eccentricity": 0.00547007,
        "meta_inclination": 98.5553,
        "meta_ra_of_asc_node": 328.2048,
        "meta_arg_of_pericenter": 72.2006,
        "meta_mean_anomaly": 288.5127,
        "meta_ephemeris_type": 0,
        "meta_classification_type": "U",
        "meta_norad_cat_id": 35176,
        "meta_element_set_no": 999,
        "meta_rev_at_epoch": 90850,
        "meta_bstar": 0.0005910593,
        "meta_mean_motion_dot": 1.163e-05,
        "meta_mean_motion_ddot": 0,
        "tle_line1": "1 35176U 99025DNG 25341.22980711  .00001163  00000+0  59106-3 0  9996",
        "tle_line2": "2 35176  98.5553 328.2048 0054700  72.2006 288.5127 14.16982341908503"
      },
      "geometry": {
        "type": "Point",
        "coordinates": [
          153.36724110771402,
          22.860120528293272
        ]
      }
    },
    {
      "type": "Feature",
      "properties": {
        "norad_id": 35191,
        "name": "FENGYUN 1C DEB",
        "group": "fengyun-1c-debris",
        "lat": -79.09357644563633,
        "lon": 20.30403236017114,
        "alt_km": 890.1880191272585,
        "timestamp": "2025-12-08T19:31:49.095745+00:00",
        "meta_object_name": "FENGYUN 1C DEB",
        "meta_object_id": "1999-025DNX",
        "meta_epoch": "2025-12-08T04:23:56.923872",
        "meta_mean_motion": 13.91200185,
        "meta_eccentricity": 0.01020753,
        "meta_inclination": 99.0152,
        "meta_ra_of_asc_node": 324.2143,
        "meta_arg_of_pericenter": 221.2669,
        "meta_mean_anomaly": 138.0743,
        "meta_ephemeris_type": 0,
        "meta_classification_type": "U",
        "meta_norad_cat_id": 35191,
        "meta_element_set_no": 999,
        "meta_rev_at_epoch": 87838,
        "meta_bstar": 0.00028240646,
        "meta_mean_motion_dot": 3.28e-06,
        "meta_mean_motion_ddot": 0,
        "tle_line1": "1 35191U 99025DNX 25342.18329773  .00000328  00000+0  28241-3 0  9992",
        "tle_line2": "2 35191  99.0152 324.2143 0102075 221.2669 138.0743 13.91200185878389"
      },
      "geometry": {
        "type": "Point",
        "coordinates": [
          20.30403236017114,
          -79.09357644563633
        ]
      }
    },
    {
      "type": "Feature",
      "properties": {
        "norad_id": 35194,
        "name": "FENGYUN 1C DEB",
        "group": "fengyun-1c-debris",
        "lat": -71.87495400974476,
        "lon": 94.6062308129236,
        "alt_km": 776.9096964109485,
        "timestamp": "2025-12-08T19:31:49.095755+00:00",
        "meta_object_name": "FENGYUN 1C DEB",
        "meta_object_id": "1999-025DPA",
        "meta_epoch": "2025-12-03T11:35:48.411744",
        "meta_mean_motion": 14.6015503,
        "meta_eccentricity": 0.01150514,
        "meta_inclination": 98.9499,
        "meta_ra_of_asc_node": 60.0738,
        "meta_arg_of_pericenter": 104.0721,
        "meta_mean_anomaly": 257.3297,
        "meta_ephemeris_type": 0,
        "meta_classification_type": "U",
        "meta_norad_cat_id": 35194,
        "meta_element_set_no": 999,
        "meta_rev_at_epoch": 65255,
        "meta_bstar": 0.0013414517,
        "meta_mean_motion_dot": 7.036e-05,
        "meta_mean_motion_ddot": 0,
        "tle_line1": "1 35194U 99025DPA 25337.48319921  .00007036  00000+0  13415-2 0  9995",
        "tle_line2": "2 35194  98.9499  60.0738 0115051 104.0721 257.3297 14.60155030652557"
      },
      "geometry": {
        "type": "Point",
        "coordinates": [
          94.6062308129236,
          -71.87495400974476
        ]
      }
    },
    {
      "type": "Feature",
      "properties": {
        "norad_id": 35195,
        "name": "FENGYUN 1C DEB",
        "group": "fengyun-1c-debris",
        "lat": -7.272864984731457,
        "lon": 77.99876763254584,
        "alt_km": 706.0990804944204,
        "timestamp": "2025-12-08T19:31:49.095764+00:00",
        "meta_object_name": "FENGYUN 1C DEB",
        "meta_object_id": "1999-025DPB",
        "meta_epoch": "2025-12-03T12:33:41.840352",
        "meta_mean_motion": 14.55899933,
        "meta_eccentricity": 0.01040396,
        "meta_inclination": 98.9842,
        "meta_ra_of_asc_node": 71.1499,
        "meta_arg_of_pericenter": 96.2611,
        "meta_mean_anomaly": 265.0447,
        "meta_ephemeris_type": 0,
        "meta_classification_type": "U",
        "meta_norad_cat_id": 35195,
        "meta_element_set_no": 999,
        "meta_rev_at_epoch": 90792,
        "meta_bstar": 0.0012811423,
        "meta_mean_motion_dot": 6e-05,
        "meta_mean_motion_ddot": 0,
        "tle_line1": "1 35195U 99025DPB 25337.52340093  .00006000  00000+0  12811-2 0  9994",
        "tle_line2": "2 35195  98.9842  71.1499 0104039  96.2611 265.0447 14.55899933907929"
      },
      "geometry": {
        "type": "Point",
        "coordinates": [
          77.99876763254584,
          -7.272864984731457
        ]
      }
    },
    {
      "type": "Feature",
      "properties": {
        "norad_id": 35196,
        "name": "FENGYUN 1C DEB",
        "group": "fengyun-1c-debris",
        "lat": -81.26605346267212,
        "lon": 100.2662640576645,
        "alt_km": 807.6270504417189,
        "timestamp": "2025-12-08T19:31:49.095773+00:00",
        "meta_object_name": "FENGYUN 1C DEB",
        "meta_object_id": "1999-025DPC",
        "meta_epoch": "2025-12-07T19:26:10.987296",
        "meta_mean_motion": 14.19753404,
        "meta_eccentricity": 0.02147394,
        "meta_inclination": 98.536,
        "meta_ra_of_asc_node": 357.1518,
        "meta_arg_of_pericenter": 352.6622,
        "meta_mean_anomaly": 189.7104,
        "meta_ephemeris_type": 0,
        "meta_classification_type": "U",
        "meta_norad_cat_id": 35196,
        "meta_element_set_no": 999,
        "meta_rev_at_epoch": 89064,
        "meta_bstar": 0.0015688861,
        "meta_mean_motion_dot": 4.14e-05,
        "meta_mean_motion_ddot": 0,
        "tle_line1": "1 35196U 99025DPC 25341.80984939  .00004140  00000+0  15689-2 0  9993",
        "tle_line2": "2 35196  98.5360 357.1518 0214739 352.6622 189.7104 14.19753404890644"
      },
      "geometry": {
        "type": "Point",
        "coordinates": [
          100.2662640576645,
          -81.26605346267212
        ]
      }
    },
    {
      "type": "Feature",
      "properties": {
        "norad_id": 35200,
        "name": "FENGYUN 1C DEB",
        "group": "fengyun-1c-debris",
        "lat": 12.657645142435102,
        "lon": -41.31592823557644,
        "alt_km": 953.3996963556883,
        "timestamp": "2025-12-08T19:31:49.095782+00:00",
        "meta_object_name": "FENGYUN 1C DEB",
        "meta_object_id": "1999-025DPG",
        "meta_epoch": "2025-12-07T22:16:02.097120",
        "meta_mean_motion": 13.41954841,
        "meta_eccentricity": 0.03532878,
        "meta_inclination": 98.8698,
        "meta_ra_of_asc_node": 319.9137,
        "meta_arg_of_pericenter": 72.361,
        "meta_mean_anomaly": 346.0378,
        "meta_ephemeris_type": 0,
        "meta_classification_type": "U",
        "meta_norad_cat_id": 35200,
        "meta_element_set_no": 999,
        "meta_rev_at_epoch": 65839,
        "meta_bstar": 0.00058804675,
        "meta_mean_motion_dot": 4.43e-06,
        "meta_mean_motion_ddot": 0,
        "tle_line1": "1 35200U 99025DPG 25341.92780205  .00000443  00000+0  58805-3 0  9992",
        "tle_line2": "2 35200  98.8698 319.9137 0353287  72.3610 346.0378 13.41954841658392"
      },
      "geometry": {
        "type": "Point",
        "coordinates": [
          -41.31592823557644,
          12.657645142435102
        ]
      }
    },
    {
      "type": "Feature",
      "properties": {
        "norad_id": 35201,
        "name": "FENGYUN 1C DEB",
        "group": "fengyun-1c-debris",
        "lat": 51.11373451245011,
        "lon": -18.985014601310883,
        "alt_km": 854.5686444248604,
        "timestamp": "2025-12-08T19:31:49.095792+00:00",
        "meta_object_name": "FENGYUN 1C DEB",
        "meta_object_id": "1999-025DPH",
        "meta_epoch": "2025-12-06T07:48:17.642016",
        "meta_mean_motion": 14.11048703,
        "meta_eccentricity": 0.00057709,
        "meta_inclination": 98.7079,
        "meta_ra_of_asc_node": 349.557,
        "meta_arg_of_pericenter": 270.7578,
        "meta_mean_anomaly": 106.9618,
        "meta_ephemeris_type": 0,
        "meta_classification_type": "U",
        "meta_norad_cat_id": 35201,
        "meta_element_set_no": 999,
        "meta_rev_at_epoch": 86929,
        "meta_bstar": 0.00021062979,
        "meta_mean_motion_dot": 3.36e-06,
        "meta_mean_motion_ddot": 0,
        "tle_line1": "1 35201U 99025DPH 25340.32520419  .00000336  00000+0  21063-3 0  9992",
        "tle_line2": "2 35201  98.7079 349.5570 0005770 270.7578 106.9618 14.11048703869295"
      },
      "geometry": {
        "type": "Point",
        "coordinates": [
          -18.985014601310883,
          51.11373451245011
        ]
      }
    }
  ]
}